ONEWEB-0419             
1 50494U 21132AB  25318.17269762  .00000037  00000+0  61245-4 0  9991
2 50494  87.9220  18.1571 0001709  90.7852 269.3476 13.18688113193249
ONEWEB-0420             
1 50495U 21132AC  25318.21393243  .00000146  00000+0  33798-3 0  9991
2 50495  87.9218  18.1601 0002179 104.3663 255.7711 13.18688438193246
ONEWEB-0421             
1 50496U 21132AD  25318.20734365  .00000086  00000+0  18477-3 0  9995
2 50496  87.9215  18.1548 0001720 111.3978 248.7338 13.18687362193288
ONEWEB-0424             
1 50497U 21132AE  25318.16775772  .00000018  00000+0  13067-4 0  9994
2 50497  87.9219  18.1585 0001862  87.2618 272.8727 13.18687632193306
ONEWEB-0426             
1 50498U 21132AF  25318.20402425  .00000133  00000+0  30448-3 0  9991
2 50498  87.9222  18.1429 0001377 119.6393 240.4876 13.18688802193259
ONEWEB-0427             
1 50499U 21132AG  25318.16609649  .00000015  00000+0  62655-5 0  9990
2 50499  87.9222  18.1384 0001601  96.8184 263.3130 13.18684142193276
ONEWEB-0429             
1 50500U 21132AH  25318.22877966 -.00000004  00000+0 -43660-4 0  9993
2 50500  87.9215  18.1572 0001951  99.9053 260.2300 13.18687890193253
ONEWEB-0430             
1 50501U 21132AJ  25318.21723047  .00000087  00000+0  18810-3 0  9990
2 50501  87.9222  18.1550 0002128  96.7108 263.4266 13.18687963193292
ONEWEB-0432             
1 50502U 21132AK  25318.17305752  .00000045  00000+0  81767-4 0  9991
2 50502  87.9217  18.1367 0001464  68.2383 291.8905 13.18674050193247
ONEWEB-0440             
1 50503U 21132AL  25318.16115632  .00000082  00000+0  17542-3 0  9997
2 50503  87.9215  18.1561 0001981 111.3342 248.8001 13.18687670193231
ONEWEB-0450             
1 50504U 21132AM  25318.23057988  .00000047  00000+0  87355-4 0  9996
2 50504  87.9211  18.1654 0002085  98.2626 261.8743 13.18685389193272
ONEWEB-0410             
1 51622U 22012A   25318.31790133  .00000033  00000+0  52894-4 0  9996
2 51622  87.9140  48.5681 0000310 131.5361 228.5798 13.17652131185402
ONEWEB-0411             
1 51623U 22012B   25318.29570483 -.00000534  00000+0 -15649-2 0  9991
2 51623  87.8797  79.1036 0001915  86.8431 273.2915 13.10374105181146
ONEWEB-0415             
1 51624U 22012C   25318.29237649 -.00000541  00000+0 -15870-2 0  9990
2 51624  87.8797  79.1065 0001671  91.8417 268.2901 13.10374951181146
ONEWEB-0416             
1 51625U 22012D   25318.30400100 -.00000308  00000+0 -91868-3 0  9990
2 51625  87.8801  79.1246 0001497  98.3258 261.8039 13.10377643181181
ONEWEB-0422             
1 51626U 22012E   25318.17616425  .00000107  00000+0  24210-3 0  9997
2 51626  87.9145  48.6009 0002365 111.0247 249.1138 13.17651922185497
ONEWEB-0423             
1 51627U 22012F   25318.32128847  .00000080  00000+0  17283-3 0  9993
2 51627  87.9137  48.5818 0001737 107.0934 253.0388 13.17651175185408
