[{"OBJECT_NAME":"ONEWEB-0419","OBJECT_ID":"2021-132AB","EPOCH":"2025-11-14T04:08:41.074368","MEAN_MOTION":13.18688113,"ECCENTRICITY":0.00017091,"INCLINATION":87.922,"RA_OF_ASC_NODE":18.1571,"ARG_OF_PERICENTER":90.7852,"MEAN_ANOMALY":269.3476,"EPHEMERIS_TYPE":0,"CLASSIFICATION_TYPE":"U","NORAD_CAT_ID":50494,"ELEMENT_SET_NO":999,"REV_AT_EPOCH":19324,"BSTAR":6.1245292e-5,"MEAN_MOTION_DOT":3.7e-7,"MEAN_MOTION_DDOT":0},{"OBJECT_NAME":"ONEWEB-0420","OBJECT_ID":"2021-132AC","EPOCH":"2025-11-14T05:08:03.761952","MEAN_MOTION":13.18688438,"ECCENTRICITY":0.00021791,"INCLINATION":87.9218,"RA_OF_ASC_NODE":18.1601,"ARG_OF_PERICENTER":104.3663,"MEAN_ANOMALY":255.7711,"EPHEMERIS_TYPE":0,"CLASSIFICATION_TYPE":"U","NORAD_CAT_ID":50495,"ELEMENT_SET_NO":999,"REV_AT_EPOCH":19324,"BSTAR":0.00033797844,"MEAN_MOTION_DOT":1.46e-6,"MEAN_MOTION_DDOT":0},{"OBJECT_NAME":"ONEWEB-0421","OBJECT_ID":"2021-132AD","EPOCH":"2025-11-14T04:58:34.491360","MEAN_MOTION":13.18687362,"ECCENTRICITY":0.00017201,"INCLINATION":87.9215,"RA_OF_ASC_NODE":18.1548,"ARG_OF_PERICENTER":111.3978,"MEAN_ANOMALY":248.7338,"EPHEMERIS_TYPE":0,"CLASSIFICATION_TYPE":"U","NORAD_CAT_ID":50496,"ELEMENT_SET_NO":999,"REV_AT_EPOCH":19328,"BSTAR":0.00018477411,"MEAN_MOTION_DOT":8.6e-7,"MEAN_MOTION_DDOT":0},{"OBJECT_NAME":"ONEWEB-0424","OBJECT_ID":"2021-132AE","EPOCH":"2025-11-14T04:01:34.267008","MEAN_MOTION":13.18687632,"ECCENTRICITY":0.0001862,"INCLINATION":87.9219,"RA_OF_ASC_NODE":18.1585,"ARG_OF_PERICENTER":87.2618,"MEAN_ANOMALY":272.8727,"EPHEMERIS_TYPE":0,"CLASSIFICATION_TYPE":"U","NORAD_CAT_ID":50497,"ELEMENT_SET_NO":999,"REV_AT_EPOCH":19330,"BSTAR":1.3066676e-5,"MEAN_MOTION_DOT":1.8e-7,"MEAN_MOTION_DDOT":0},{"OBJECT_NAME":"ONEWEB-0426","OBJECT_ID":"2021-132AF","EPOCH":"2025-11-14T04:53:47.695200","MEAN_MOTION":13.18688802,"ECCENTRICITY":0.00013777,"INCLINATION":87.9222,"RA_OF_ASC_NODE":18.1429,"ARG_OF_PERICENTER":119.6393,"MEAN_ANOMALY":240.4876,"EPHEMERIS_TYPE":0,"CLASSIFICATION_TYPE":"U","NORAD_CAT_ID":50498,"ELEMENT_SET_NO":999,"REV_AT_EPOCH":19325,"BSTAR":0.00030447686,"MEAN_MOTION_DOT":1.33e-6,"MEAN_MOTION_DDOT":0},{"OBJECT_NAME":"ONEWEB-0427","OBJECT_ID":"2021-132AG","EPOCH":"2025-11-14T03:59:10.736736","MEAN_MOTION":13.18684142,"ECCENTRICITY":0.0001601,"INCLINATION":87.9222,"RA_OF_ASC_NODE":18.1384,"ARG_OF_PERICENTER":96.8184,"MEAN_ANOMALY":263.313,"EPHEMERIS_TYPE":0,"CLASSIFICATION_TYPE":"U","NORAD_CAT_ID":50499,"ELEMENT_SET_NO":999,"REV_AT_EPOCH":19327,"BSTAR":6.265499e-6,"MEAN_MOTION_DOT":1.5e-7,"MEAN_MOTION_DDOT":0},{"OBJECT_NAME":"ONEWEB-0429","OBJECT_ID":"2021-132AH","EPOCH":"2025-11-14T05:29:26.562624","MEAN_MOTION":13.1868789,"ECCENTRICITY":0.00019516,"INCLINATION":87.9215,"RA_OF_ASC_NODE":18.1572,"ARG_OF_PERICENTER":99.9053,"MEAN_ANOMALY":260.23,"EPHEMERIS_TYPE":0,"CLASSIFICATION_TYPE":"U","NORAD_CAT_ID":50500,"ELEMENT_SET_NO":999,"REV_AT_EPOCH":19325,"BSTAR":-4.3659707e-5,"MEAN_MOTION_DOT":-4.0e-8,"MEAN_MOTION_DDOT":0},{"OBJECT_NAME":"ONEWEB-0430","OBJECT_ID":"2021-132AJ","EPOCH":"2025-11-14T05:12:48.712608","MEAN_MOTION":13.18687963,"ECCENTRICITY":0.00021282,"INCLINATION":87.9222,"RA_OF_ASC_NODE":18.155,"ARG_OF_PERICENTER":96.7108,"MEAN_ANOMALY":263.4266,"EPHEMERIS_TYPE":0,"CLASSIFICATION_TYPE":"U","NORAD_CAT_ID":50501,"ELEMENT_SET_NO":999,"REV_AT_EPOCH":19329,"BSTAR":0.00018809615,"MEAN_MOTION_DOT":8.7e-7,"MEAN_MOTION_DDOT":0},{"OBJECT_NAME":"ONEWEB-0432","OBJECT_ID":"2021-132AK","EPOCH":"2025-11-14T04:09:12.169728","MEAN_MOTION":13.1867405,"ECCENTRICITY":0.00014646,"INCLINATION":87.9217,"RA_OF_ASC_NODE":18.1367,"ARG_OF_PERICENTER":68.2383,"MEAN_ANOMALY":291.8905,"EPHEMERIS_TYPE":0,"CLASSIFICATION_TYPE":"U","NORAD_CAT_ID":50502,"ELEMENT_SET_NO":999,"REV_AT_EPOCH":19324,"BSTAR":8.1767272e-5,"MEAN_MOTION_DOT":4.5e-7,"MEAN_MOTION_DDOT":0},{"OBJECT_NAME":"ONEWEB-0440","OBJECT_ID":"2021-132AL","EPOCH":"2025-11-14T03:52:03.906048","MEAN_MOTION":13.1868767,"ECCENTRICITY":0.00019815,"INCLINATION":87.9215,"RA_OF_ASC_NODE":18.1561,"ARG_OF_PERICENTER":111.3342,"MEAN_ANOMALY":248.8001,"EPHEMERIS_TYPE":0,"CLASSIFICATION_TYPE":"U","NORAD_CAT_ID":50503,"ELEMENT_SET_NO":999,"REV_AT_EPOCH":19323,"BSTAR":0.00017541666,"MEAN_MOTION_DOT":8.2e-7,"MEAN_MOTION_DDOT":0},{"OBJECT_NAME":"ONEWEB-0450","OBJECT_ID":"2021-132AM","EPOCH":"2025-11-14T05:32:02.101632","MEAN_MOTION":13.18685389,"ECCENTRICITY":0.00020854,"INCLINATION":87.9211,"RA_OF_ASC_NODE":18.1654,"ARG_OF_PERICENTER":98.2626,"MEAN_ANOMALY":261.8743,"EPHEMERIS_TYPE":0,"CLASSIFICATION_TYPE":"U","NORAD_CAT_ID":50504,"ELEMENT_SET_NO":999,"REV_AT_EPOCH":19327,"BSTAR":8.7355178e-5,"MEAN_MOTION_DOT":4.7e-7,"MEAN_MOTION_DDOT":0},{"OBJECT_NAME":"ONEWEB-0410","OBJECT_ID":"2022-012A","EPOCH":"2025-11-14T07:37:46.674912","MEAN_MOTION":13.17652131,"ECCENTRICITY":3.104e-5,"INCLINATION":87.914,"RA_OF_ASC_NODE":48.5681,"ARG_OF_PERICENTER":131.5361,"MEAN_ANOMALY":228.5798,"EPHEMERIS_TYPE":0,"CLASSIFICATION_TYPE":"U","NORAD_CAT_ID":51622,"ELEMENT_SET_NO":999,"REV_AT_EPOCH":18540,"BSTAR":5.2894457e-5,"MEAN_MOTION_DOT":3.3e-7,"MEAN_MOTION_DDOT":0},{"OBJECT_NAME":"ONEWEB-0411","OBJECT_ID":"2022-012B","EPOCH":"2025-11-14T07:05:48.897312","MEAN_MOTION":13.10374105,"ECCENTRICITY":0.00019155,"INCLINATION":87.8797,"RA_OF_ASC_NODE":79.1036,"ARG_OF_PERICENTER":86.8431,"MEAN_ANOMALY":273.2915,"EPHEMERIS_TYPE":0,"CLASSIFICATION_TYPE":"U","NORAD_CAT_ID":51623,"ELEMENT_SET_NO":999,"REV_AT_EPOCH":18114,"BSTAR":-0.0015648781,"MEAN_MOTION_DOT":-5.34e-6,"MEAN_MOTION_DDOT":0},{"OBJECT_NAME":"ONEWEB-0415","OBJECT_ID":"2022-012C","EPOCH":"2025-11-14T07:01:01.328736","MEAN_MOTION":13.10374951,"ECCENTRICITY":0.00016711,"INCLINATION":87.8797,"RA_OF_ASC_NODE":79.1065,"ARG_OF_PERICENTER":91.8417,"MEAN_ANOMALY":268.2901,"EPHEMERIS_TYPE":0,"CLASSIFICATION_TYPE":"U","NORAD_CAT_ID":51624,"ELEMENT_SET_NO":999,"REV_AT_EPOCH":18114,"BSTAR":-0.0015869901,"MEAN_MOTION_DOT":-5.41e-6,"MEAN_MOTION_DDOT":0},{"OBJECT_NAME":"ONEWEB-0416","OBJECT_ID":"2022-012D","EPOCH":"2025-11-14T07:17:45.686400","MEAN_MOTION":13.10377643,"ECCENTRICITY":0.00014975,"INCLINATION":87.8801,"RA_OF_ASC_NODE":79.1246,"ARG_OF_PERICENTER":98.3258,"MEAN_ANOMALY":261.8039,"EPHEMERIS_TYPE":0,"CLASSIFICATION_TYPE":"U","NORAD_CAT_ID":51625,"ELEMENT_SET_NO":999,"REV_AT_EPOCH":18118,"BSTAR":-0.00091868261,"MEAN_MOTION_DOT":-3.08e-6,"MEAN_MOTION_DDOT":0},{"OBJECT_NAME":"ONEWEB-0422","OBJECT_ID":"2022-012E","EPOCH":"2025-11-14T04:13:40.591200","MEAN_MOTION":13.17651922,"ECCENTRICITY":0.00023657,"INCLINATION":87.9145,"RA_OF_ASC_NODE":48.6009,"ARG_OF_PERICENTER":111.0247,"MEAN_ANOMALY":249.1138,"EPHEMERIS_TYPE":0,"CLASSIFICATION_TYPE":"U","NORAD_CAT_ID":51626,"ELEMENT_SET_NO":999,"REV_AT_EPOCH":18549,"BSTAR":0.00024210219,"MEAN_MOTION_DOT":1.07e-6,"MEAN_MOTION_DDOT":0},{"OBJECT_NAME":"ONEWEB-0423","OBJECT_ID":"2022-012F","EPOCH":"2025-11-14T07:42:39.323808","MEAN_MOTION":13.17651175,"ECCENTRICITY":0.00017379,"INCLINATION":87.9137,"RA_OF_ASC_NODE":48.5818,"ARG_OF_PERICENTER":107.0934,"MEAN_ANOMALY":253.0388,"EPHEMERIS_TYPE":0,"CLASSIFICATION_TYPE":"U","NORAD_CAT_ID":51627,"ELEMENT_SET_NO":999,"REV_AT_EPOCH":18540,"BSTAR":0.00017283432,"MEAN_MOTION_DOT":8.0e-7,"MEAN_MOTION_DDOT":0}]
